IRIDIUM 116             
1 43072U 17083C   25060.32396097  .00000786  00000+0  27350-3 0  9997
2 43072  86.4030 159.6720 0002000  90.1744 269.9681 14.34212178376398
IRIDIUM 130             
1 43073U 17083D   25060.36202723  .00000250  00000+0  82045-4 0  9993
2 43073  86.4039 159.8852 0002183  90.4316 269.7130 14.34218269376345
IRIDIUM 151             
1 43074U 17083E   25060.33664997  .00000570  00000+0  19658-3 0  9990
2 43074  86.4037 159.7139 0001886  95.1180 265.0231 14.34211351376369
IRIDIUM 134             
1 43075U 17083F   25060.37471213  .00000622  00000+0  21484-3 0  9990
2 43075  86.4031 159.6990 0002334  93.5184 266.6278 14.34222064376331
IRIDIUM 137             
1 43076U 17083G   25060.31762804  .00000232  00000+0  75855-4 0  9993
2 43076  86.4039 159.8065 0001537  93.1014 267.0357 14.34218203376396
IRIDIUM 141             
1 43077U 17083H   25060.31128302  .00000630  00000+0  21803-3 0  9998
2 43077  86.4034 159.6677 0002644 103.5041 256.6450 14.34220840376393
IRIDIUM 153             
1 43078U 17083J   25060.54253999  .00000002  00000+0 -65068-5 0  9992
2 43078  86.3983 128.0859 0002566 105.4929 254.6550 14.34217828377535
IRIDIUM 131             
1 43079U 17083K   25060.36837015  .00000228  00000+0  74253-4 0  9994
2 43079  86.4039 159.7974 0002109 103.3926 256.7505 14.34218100376339
